[{"OBJECT_NAME":"LKW-3","OBJECT_ID":"2018-006A","EPOCH":"2026-03-09T23:35:48.740928","MEAN_MOTION":15.33087407,"ECCENTRICITY":0.00022503,"INCLINATION":97.6481,"RA_OF_ASC_NODE":225.9034,"ARG_OF_PERICENTER":308.148,"MEAN_ANOMALY":51.9559,"EPHEMERIS_TYPE":0,"CLASSIFICATION_TYPE":"U","NORAD_CAT_ID":43146,"ELEMENT_SET_NO":999,"REV_AT_EPOCH":45350,"BSTAR":0.00042518021,"MEAN_MOTION_DOT":0.00013518,"MEAN_MOTION_DDOT":0},{"OBJECT_NAME":"STARLINK-35965","OBJECT_ID":"2025-271Q","EPOCH":"2026-03-09T12:23:46.654944","MEAN_MOTION":15.30231015,"ECCENTRICITY":0.00015725,"INCLINATION":53.1595,"RA_OF_ASC_NODE":140.4931,"ARG_OF_PERICENTER":73.2754,"MEAN_ANOMALY":286.8419,"EPHEMERIS_TYPE":0,"CLASSIFICATION_TYPE":"U","NORAD_CAT_ID":66631,"ELEMENT_SET_NO":999,"REV_AT_EPOCH":1754,"BSTAR":0.00087008254,"MEAN_MOTION_DOT":0.00025523,"MEAN_MOTION_DDOT":0}]
